0 FENGYUN 1C DEB
1 32418U 99025DAE 13283.26394912  .00003069  00000-0  25474-2 0  2980
2 32418 098.2140 299.7267 0302416 351.8622 063.2453 13.70287860298711
0 FENGYUN 1C DEB
1 32418U 99025DAE 13286.85526684  .00003180  00000-0  26383-2 0  2996
2 32418 098.2133 302.8020 0302277 342.1416 139.5189 13.70305561299202
0 FENGYUN 1C DEB
1 32418U 99025DAE 13289.84876279  .00003576  00000-0  29630-2 0  3006
2 32418 098.2124 305.3652 0302167 334.0435 146.8908 13.70325837299613
0 FENGYUN 1C DEB
1 32418U 99025DAE 13293.26681891  .00003752  00000-0  31066-2 0  3014
2 32418 098.2125 308.2914 0302078 324.7957 088.9632 13.70348619300080
0 FENGYUN 1C DEB
1 32418U 99025DAE 13295.31324199  .00004022  00000-0  33279-2 0  3027
2 32418 098.2131 310.0433 0302034 319.2597 104.5674 13.70361806300360
